{"type": "FeatureCollection", "features": [ {"type": "Feature", "properties": {"norad_id": 30500, "name": "FENGYUN 1C DEB", "group": "fengyun-1c-debris", "lat": -16.73681424838842, "lon": 73.96185300759574, "alt_km": 854.802742077537, "timestamp": "2025-12-05T22:40:48.827322+00:00", "meta": {"OBJECT_NAME": "FENGYUN 1C DEB", "OBJECT_ID": "1999-025AHN", "EPOCH": "2025-12-04T23:26:05.368992", "MEAN_MOTION": 14.25046181, "ECCENTRICITY": 0.00656582, "INCLINATION": 99.0733, "RA_OF_ASC_NODE": 70.2066, "ARG_OF_PERICENTER": 138.3425, "MEAN_ANOMALY": 279.0356, "EPHEMERIS_TYPE": 0, "CLASSIFICATION_TYPE": "U", "NORAD_CAT_ID": 30500, "ELEMENT_SET_NO": 999, "REV_AT_EPOCH": 96571, "BSTAR": 0.0059682384, "MEAN_MOTION_DOT": 0.00014281, "MEAN_MOTION_DDOT": 0}, "tle": {"line1": "1 30500U 99025AHN 25338.97645103  .00014281  00000+0  59682-2 0  9996", "line2": "2 30500  99.0733  70.2066 0065658 138.3425 279.0356 14.25046181965710"}}, "geometry": {"type": "Point", "coordinates": [73.96185300759574, -16.73681424838842]}}, {"type": "Feature", "properties": {"norad_id": 30501, "name": "FENGYUN 1C DEB", "group": "fengyun-1c-debris", "lat": -70.88595417069733, "lon": -1.9954598598371438, "alt_km": 801.9444167468309, "timestamp": "2025-12-05T22:40:48.827332+00:00", "meta": {"OBJECT_NAME": "FENGYUN 1C DEB", "OBJECT_ID": "1999-025AHP", "EPOCH": "2025-12-03T11:08:58.771104", "MEAN_MOTION": 14.25222339, "ECCENTRICITY": 0.00405934, "INCLINATION": 99.0837, "RA_OF_ASC_NODE": 327.9446, "ARG_OF_PERICENTER": 230.2055, "MEAN_ANOMALY": 296.6562, "EPHEMERIS_TYPE": 0, "CLASSIFICATION_TYPE": "U", "NORAD_CAT_ID": 30501, "ELEMENT_SET_NO": 999, "REV_AT_EPOCH": 96787, "BSTAR": 0.0023931219, "MEAN_MOTION_DOT": 5.63e-05, "MEAN_MOTION_DDOT": 0}, "tle": {"line1": "1 30501U 99025AHP 25337.46456911  .00005630  00000+0  23931-2 0  9993", "line2": "2 30501  99.0837 327.9446 0040593 230.2055 296.6562 14.25222339967876"}}, "geometry": {"type": "Point", "coordinates": [-1.9954598598371438, -70.88595417069733]}}, {"type": "Feature", "properties": {"norad_id": 30503, "name": "FENGYUN 1C DEB", "group": "fengyun-1c-debris", "lat": 6.5576586497473155, "lon": -177.8311595913113, "alt_km": 839.3584899904645, "timestamp": "2025-12-05T22:40:48.827342+00:00", "meta": {"OBJECT_NAME": "FENGYUN 1C DEB", "OBJECT_ID": "1999-025AHR", "EPOCH": "2025-12-04T06:15:42.547968", "MEAN_MOTION": 14.16110792, "ECCENTRICITY": 0.0008422, "INCLINATION": 99.2051, "RA_OF_ASC_NODE": 181.4974, "ARG_OF_PERICENTER": 292.5019, "MEAN_ANOMALY": 133.3576, "EPHEMERIS_TYPE": 0, "CLASSIFICATION_TYPE": "U", "NORAD_CAT_ID": 30503, "ELEMENT_SET_NO": 999, "REV_AT_EPOCH": 97226, "BSTAR": 0.00050846, "MEAN_MOTION_DOT": 9.58e-06, "MEAN_MOTION_DDOT": 0}, "tle": {"line1": "1 30503U 99025AHR 25338.26090912  .00000958  00000+0  50846-3 0  9993", "line2": "2 30503  99.2051 181.4974 0008422 292.5019 133.3576 14.16110792972263"}}, "geometry": {"type": "Point", "coordinates": [-177.8311595913113, 6.5576586497473155]}}, {"type": "Feature", "properties": {"norad_id": 30504, "name": "FENGYUN 1C DEB", "group": "fengyun-1c-debris", "lat": 66.42805271718949, "lon": -132.65174747554138, "alt_km": 861.46181865987, "timestamp": "2025-12-05T22:40:48.827352+00:00", "meta": {"OBJECT_NAME": "FENGYUN 1C DEB", "OBJECT_ID": "1999-025AHS", "EPOCH": "2025-12-04T14:45:00.564768", "MEAN_MOTION": 14.20459682, "ECCENTRICITY": 0.011155, "INCLINATION": 99.0254, "RA_OF_ASC_NODE": 24.627, "ARG_OF_PERICENTER": 239.5258, "MEAN_ANOMALY": 273.8466, "EPHEMERIS_TYPE": 0, "CLASSIFICATION_TYPE": "U", "NORAD_CAT_ID": 30504, "ELEMENT_SET_NO": 999, "REV_AT_EPOCH": 97278, "BSTAR": 0.00079295, "MEAN_MOTION_DOT": 1.764e-05, "MEAN_MOTION_DDOT": 0}, "tle": {"line1": "1 30504U 99025AHS 25338.61458987  .00001764  00000+0  79295-3 0  9998", "line2": "2 30504  99.0254  24.6270 0111550 239.5258 273.8466 14.20459682972781"}}, "geometry": {"type": "Point", "coordinates": [-132.65174747554138, 66.42805271718949]}}, {"type": "Feature", "properties": {"norad_id": 30505, "name": "FENGYUN 1C DEB", "group": "fengyun-1c-debris", "lat": -23.136808107547672, "lon": 63.37412027619706, "alt_km": 812.2661432126915, "timestamp": "2025-12-05T22:40:48.827362+00:00", "meta": {"OBJECT_NAME": "FENGYUN 1C DEB", "OBJECT_ID": "1999-025AHT", "EPOCH": "2025-12-05T04:21:10.872576", "MEAN_MOTION": 14.2194913, "ECCENTRICITY": 0.00630317, "INCLINATION": 98.9271, "RA_OF_ASC_NODE": 58.7505, "ARG_OF_PERICENTER": 263.6441, "MEAN_ANOMALY": 125.4547, "EPHEMERIS_TYPE": 0, "CLASSIFICATION_TYPE": "U", "NORAD_CAT_ID": 30505, "ELEMENT_SET_NO": 999, "REV_AT_EPOCH": 96816, "BSTAR": 0.0035977639, "MEAN_MOTION_DOT": 8.066e-05, "MEAN_MOTION_DDOT": 0}, "tle": {"line1": "1 30505U 99025AHT 25339.18137584  .00008066  00000+0  35978-2 0  9990", "line2": "2 30505  98.9271  58.7505 0063031 263.6441 125.4547 14.21949130968162"}}, "geometry": {"type": "Point", "coordinates": [63.37412027619706, -23.136808107547672]}}, {"type": "Feature", "properties": {"norad_id": 30506, "name": "FENGYUN 1C DEB", "group": "fengyun-1c-debris", "lat": -29.279524415765128, "lon": -9.827082551748928, "alt_km": 828.7352320285809, "timestamp": "2025-12-05T22:40:48.827372+00:00", "meta": {"OBJECT_NAME": "FENGYUN 1C DEB", "OBJECT_ID": "1999-025AHU", "EPOCH": "2025-12-05T06:24:10.859040", "MEAN_MOTION": 14.0863715, "ECCENTRICITY": 0.00706409, "INCLINATION": 98.7569, "RA_OF_ASC_NODE": 344.5564, "ARG_OF_PERICENTER": 9.106, "MEAN_ANOMALY": 124.4337, "EPHEMERIS_TYPE": 0, "CLASSIFICATION_TYPE": "U", "NORAD_CAT_ID": 30506, "ELEMENT_SET_NO": 999, "REV_AT_EPOCH": 96716, "BSTAR": 0.00059143151, "MEAN_MOTION_DOT": 9.98e-06, "MEAN_MOTION_DDOT": 0}, "tle": {"line1": "1 30506U 99025AHU 25339.26679235  .00000998  00000+0  59143-3 0  9991", "line2": "2 30506  98.7569 344.5564 0070640   9.1060 124.4337 14.08637150967162"}}, "geometry": {"type": "Point", "coordinates": [-9.827082551748928, -29.279524415765128]}}, {"type": "Feature", "properties": {"norad_id": 30507, "name": "FENGYUN 1C DEB", "group": "fengyun-1c-debris", "lat": -21.72659373276539, "lon": 48.00566377696732, "alt_km": 927.3011283796286, "timestamp": "2025-12-05T22:40:48.827382+00:00", "meta": {"OBJECT_NAME": "FENGYUN 1C DEB", "OBJECT_ID": "1999-025AHV", "EPOCH": "2025-12-05T04:24:13.504032", "MEAN_MOTION": 14.13121597, "ECCENTRICITY": 0.01282841, "INCLINATION": 99.0138, "RA_OF_ASC_NODE": 43.6123, "ARG_OF_PERICENTER": 197.4943, "MEAN_ANOMALY": 227.815, "EPHEMERIS_TYPE": 0, "CLASSIFICATION_TYPE": "U", "NORAD_CAT_ID": 30507, "ELEMENT_SET_NO": 999, "REV_AT_EPOCH": 96391, "BSTAR": 0.0024463716, "MEAN_MOTION_DOT": 4.902e-05, "MEAN_MOTION_DDOT": 0}, "tle": {"line1": "1 30507U 99025AHV 25339.18348963  .00004902  00000+0  24464-2 0  9990", "line2": "2 30507  99.0138  43.6123 0128284 197.4943 227.8150 14.13121597963915"}}, "geometry": {"type": "Point", "coordinates": [48.00566377696732, -21.72659373276539]}}, {"type": "Feature", "properties": {"norad_id": 30509, "name": "FENGYUN 1C DEB", "group": "fengyun-1c-debris", "lat": -72.57774858599379, "lon": -119.45875069768715, "alt_km": 942.3734254665324, "timestamp": "2025-12-05T22:40:48.827392+00:00", "meta": {"OBJECT_NAME": "FENGYUN 1C DEB", "OBJECT_ID": "1999-025AHX", "EPOCH": "2025-12-05T04:52:07.709664", "MEAN_MOTION": 14.07574504, "ECCENTRICITY": 0.01010347, "INCLINATION": 98.4649, "RA_OF_ASC_NODE": 211.5153, "ARG_OF_PERICENTER": 84.7253, "MEAN_ANOMALY": 42.5015, "EPHEMERIS_TYPE": 0, "CLASSIFICATION_TYPE": "U", "NORAD_CAT_ID": 30509, "ELEMENT_SET_NO": 999, "REV_AT_EPOCH": 95616, "BSTAR": 0.0033673338, "MEAN_MOTION_DOT": 5.916e-05, "MEAN_MOTION_DDOT": 0}, "tle": {"line1": "1 30509U 99025AHX 25339.20286701  .00005916  00000+0  33673-2 0  9994", "line2": "2 30509  98.4649 211.5153 0101034  84.7253  42.5015 14.07574504956166"}}, "geometry": {"type": "Point", "coordinates": [-119.45875069768715, -72.57774858599379]}}, {"type": "Feature", "properties": {"norad_id": 30510, "name": "FENGYUN 1C DEB", "group": "fengyun-1c-debris", "lat": -28.25410217103495, "lon": 166.73550335925304, "alt_km": 803.2972158219882, "timestamp": "2025-12-05T22:40:48.827402+00:00", "meta": {"OBJECT_NAME": "FENGYUN 1C DEB", "OBJECT_ID": "1999-025AHY", "EPOCH": "2025-12-04T23:51:36.654336", "MEAN_MOTION": 14.12792199, "ECCENTRICITY": 0.00786287, "INCLINATION": 99.2447, "RA_OF_ASC_NODE": 350.7758, "ARG_OF_PERICENTER": 187.8594, "MEAN_ANOMALY": 226.987, "EPHEMERIS_TYPE": 0, "CLASSIFICATION_TYPE": "U", "NORAD_CAT_ID": 30510, "ELEMENT_SET_NO": 999, "REV_AT_EPOCH": 96465, "BSTAR": 0.0025523645, "MEAN_MOTION_DOT": 4.838e-05, "MEAN_MOTION_DDOT": 0}, "tle": {"line1": "1 30510U 99025AHY 25338.99417424  .00004838  00000+0  25524-2 0  9997", "line2": "2 30510  99.2447 350.7758 0078628 187.8594 226.9870 14.12792199964653"}}, "geometry": {"type": "Point", "coordinates": [166.73550335925304, -28.25410217103495]}}, {"type": "Feature", "properties": {"norad_id": 30514, "name": "FENGYUN 1C DEB", "group": "fengyun-1c-debris", "lat": -11.237022340319195, "lon": -178.03176416269105, "alt_km": 751.5107933040381, "timestamp": "2025-12-05T22:40:48.827412+00:00", "meta": {"OBJECT_NAME": "FENGYUN 1C DEB", "OBJECT_ID": "1999-025AJC", "EPOCH": "2025-12-05T00:02:37.608288", "MEAN_MOTION": 14.34318183, "ECCENTRICITY": 0.01745864, "INCLINATION": 98.4137, "RA_OF_ASC_NODE": 2.7347, "ARG_OF_PERICENTER": 117.0078, "MEAN_ANOMALY": 244.9051, "EPHEMERIS_TYPE": 0, "CLASSIFICATION_TYPE": "U", "NORAD_CAT_ID": 30514, "ELEMENT_SET_NO": 999, "REV_AT_EPOCH": 98114, "BSTAR": 0.0010733424, "MEAN_MOTION_DOT": 3.536e-05, "MEAN_MOTION_DDOT": 0}, "tle": {"line1": "1 30514U 99025AJC 25339.00182417  .00003536  00000+0  10733-2 0  9995", "line2": "2 30514  98.4137   2.7347 0174586 117.0078 244.9051 14.34318183981149"}}, "geometry": {"type": "Point", "coordinates": [-178.03176416269105, -11.237022340319195]}}]}